[
  {
    "OBJECT_NAME": "STARLINK-32745",
    "OBJECT_ID": "25014W",
    "EPOCH": "2025-11-10T19:19:12.711072",
    "MEAN_MOTION": 15.27623504,
    "ECCENTRICITY": 0.0002038,
    "INCLINATION": 43.0042,
    "RA_OF_ASC_NODE": 105.9465,
    "ARG_OF_PERICENTER": 263.4794,
    "MEAN_ANOMALY": 96.5826,
    "EPHEMERIS_TYPE": 0,
    "CLASSIFICATION_TYPE": "U",
    "NORAD_CAT_ID": 62755,
    "ELEMENT_SET_NO": 999,
    "REV_AT_EPOCH": 4507,
    "BSTAR": 0.0014168,
    "MEAN_MOTION_DOT": 0.00038983,
    "MEAN_MOTION_DDOT": 0.0,
    "TLE_LINE1": "1 62755U 25014W   25314.80500823  .00038983  00000+0  14168-2 0  9990",
    "TLE_LINE2": "2 62755  43.0042 105.9465 0002038 263.4794  96.5826 15.27623504 45075",
    "COMMENT": "Grouped by shell and plane from TLE"
  },
  {
    "OBJECT_NAME": "STARLINK-32838",
    "OBJECT_ID": "25018X",
    "EPOCH": "2025-11-10T16:41:11.002272",
    "MEAN_MOTION": 15.30196744,
    "ECCENTRICITY": 0.0001871,
    "INCLINATION": 53.1559,
    "RA_OF_ASC_NODE": 104.026,
    "ARG_OF_PERICENTER": 78.7129,
    "MEAN_ANOMALY": 281.4082,
    "EPHEMERIS_TYPE": 0,
    "CLASSIFICATION_TYPE": "U",
    "NORAD_CAT_ID": 62827,
    "ELEMENT_SET_NO": 999,
    "REV_AT_EPOCH": 4548,
    "BSTAR": 0.0018335,
    "MEAN_MOTION_DOT": 0.00054337,
    "MEAN_MOTION_DDOT": 0.0,
    "TLE_LINE1": "1 62827U 25018X   25314.69526623  .00054337  00000+0  18335-2 0  9998",
    "TLE_LINE2": "2 62827  53.1559 104.0260 0001871  78.7129 281.4082 15.30196744 45485",
    "COMMENT": "Grouped by shell and plane from TLE"
  },
  {
    "OBJECT_NAME": "STARLINK-32798",
    "OBJECT_ID": "25034A",
    "EPOCH": "2025-11-11T02:35:40.310880",
    "MEAN_MOTION": 15.30239336,
    "ECCENTRICITY": 5.82e-05,
    "INCLINATION": 53.1543,
    "RA_OF_ASC_NODE": 101.5551,
    "ARG_OF_PERICENTER": 334.234,
    "MEAN_ANOMALY": 25.8632,
    "EPHEMERIS_TYPE": 0,
    "CLASSIFICATION_TYPE": "U",
    "NORAD_CAT_ID": 63029,
    "ELEMENT_SET_NO": 999,
    "REV_AT_EPOCH": 4075,
    "BSTAR": 0.00055747,
    "MEAN_MOTION_DOT": 0.00016208,
    "MEAN_MOTION_DDOT": 0.0,
    "TLE_LINE1": "1 63029U 25034A   25315.10810545  .00016208  00000+0  55747-3 0  9991",
    "TLE_LINE2": "2 63029  53.1543 101.5551 0000582 334.2340  25.8632 15.30239336 40752",
    "COMMENT": "Grouped by shell and plane from TLE"
  },
  {
    "OBJECT_NAME": "STARLINK-32779",
    "OBJECT_ID": "25034B",
    "EPOCH": "2025-11-10T20:07:28.128864",
    "MEAN_MOTION": 15.30228361,
    "ECCENTRICITY": 5.74e-05,
    "INCLINATION": 53.1595,
    "RA_OF_ASC_NODE": 103.4256,
    "ARG_OF_PERICENTER": 322.3421,
    "MEAN_ANOMALY": 37.7539,
    "EPHEMERIS_TYPE": 0,
    "CLASSIFICATION_TYPE": "U",
    "NORAD_CAT_ID": 63030,
    "ELEMENT_SET_NO": 999,
    "REV_AT_EPOCH": 4070,
    "BSTAR": 0.0015961,
    "MEAN_MOTION_DOT": 0.00047256,
    "MEAN_MOTION_DDOT": 0.0,
    "TLE_LINE1": "1 63030U 25034B   25314.83852001  .00047256  00000+0  15961-2 0  9995",
    "TLE_LINE2": "2 63030  53.1595 103.4256 0000574 322.3421  37.7539 15.30228361 40702",
    "COMMENT": "Grouped by shell and plane from TLE"
  },
  {
    "OBJECT_NAME": "STARLINK-32827",
    "OBJECT_ID": "25034Q",
    "EPOCH": "2025-11-10T16:56:19.722048",
    "MEAN_MOTION": 15.30213532,
    "ECCENTRICITY": 0.0001653,
    "INCLINATION": 53.1547,
    "RA_OF_ASC_NODE": 104.0151,
    "ARG_OF_PERICENTER": 88.2236,
    "MEAN_ANOMALY": 271.8954,
    "EPHEMERIS_TYPE": 0,
    "CLASSIFICATION_TYPE": "U",
    "NORAD_CAT_ID": 63043,
    "ELEMENT_SET_NO": 999,
    "REV_AT_EPOCH": 4068,
    "BSTAR": 0.0013437,
    "MEAN_MOTION_DOT": 0.00039667,
    "MEAN_MOTION_DDOT": 0.0,
    "TLE_LINE1": "1 63043U 25034Q   25314.70578382  .00039667  00000+0  13437-2 0  9995",
    "TLE_LINE2": "2 63043  53.1547 104.0151 0001653  88.2236 271.8954 15.30213532 40688",
    "COMMENT": "Grouped by shell and plane from TLE"
  },
  {
    "OBJECT_NAME": "STARLINK-32735",
    "OBJECT_ID": "25034R",
    "EPOCH": "2025-11-10T20:10:20.712000",
    "MEAN_MOTION": 15.30241386,
    "ECCENTRICITY": 8.37e-05,
    "INCLINATION": 53.1636,
    "RA_OF_ASC_NODE": 102.7289,
    "ARG_OF_PERICENTER": 356.4587,
    "MEAN_ANOMALY": 3.6407,
    "EPHEMERIS_TYPE": 0,
    "CLASSIFICATION_TYPE": "U",
    "NORAD_CAT_ID": 63044,
    "ELEMENT_SET_NO": 999,
    "REV_AT_EPOCH": 4071,
    "BSTAR": 0.0011761,
    "MEAN_MOTION_DOT": 0.00034682,
    "MEAN_MOTION_DDOT": 0.0,
    "TLE_LINE1": "1 63044U 25034R   25314.84051750  .00034682  00000+0  11761-2 0  9996",
    "TLE_LINE2": "2 63044  53.1636 102.7289 0000837 356.4587   3.6407 15.30241386 40713",
    "COMMENT": "Grouped by shell and plane from TLE"
  },
  {
    "OBJECT_NAME": "STARLINK-32828",
    "OBJECT_ID": "25034S",
    "EPOCH": "2025-11-11T03:03:00.657216",
    "MEAN_MOTION": 15.30204022,
    "ECCENTRICITY": 3.92e-05,
    "INCLINATION": 53.1612,
    "RA_OF_ASC_NODE": 101.6639,
    "ARG_OF_PERICENTER": 306.4732,
    "MEAN_ANOMALY": 53.6233,
    "EPHEMERIS_TYPE": 0,
    "CLASSIFICATION_TYPE": "U",
    "NORAD_CAT_ID": 63045,
    "ELEMENT_SET_NO": 999,
    "REV_AT_EPOCH": 4075,
    "BSTAR": 0.0012554999999999999,
    "MEAN_MOTION_DOT": 0.00037016,
    "MEAN_MOTION_DDOT": 0.0,
    "TLE_LINE1": "1 63045U 25034S   25315.12709094  .00037016  00000+0  12555-2 0  9996",
    "TLE_LINE2": "2 63045  53.1612 101.6639 0000392 306.4732  53.6233 15.30204022 40750",
    "COMMENT": "Grouped by shell and plane from TLE"
  },
  {
    "OBJECT_NAME": "STARLINK-32829",
    "OBJECT_ID": "25034W",
    "EPOCH": "2025-11-10T19:59:52.334304",
    "MEAN_MOTION": 15.30201,
    "ECCENTRICITY": 0.0001076,
    "INCLINATION": 53.1614,
    "RA_OF_ASC_NODE": 103.3886,
    "ARG_OF_PERICENTER": 94.0104,
    "MEAN_ANOMALY": 266.102,
    "EPHEMERIS_TYPE": 0,
    "CLASSIFICATION_TYPE": "U",
    "NORAD_CAT_ID": 63049,
    "ELEMENT_SET_NO": 999,
    "REV_AT_EPOCH": 4070,
    "BSTAR": 0.0015256,
    "MEAN_MOTION_DOT": 0.00045101,
    "MEAN_MOTION_DDOT": 0.0,
    "TLE_LINE1": "1 63049U 25034W   25314.83324461  .00045101  00000+0  15256-2 0  9993",
    "TLE_LINE2": "2 63049  53.1614 103.3886 0001076  94.0104 266.1020 15.30201000 40705",
    "COMMENT": "Grouped by shell and plane from TLE"
  },
  {
    "OBJECT_NAME": "STARLINK-32816",
    "OBJECT_ID": "25034X",
    "EPOCH": "2025-11-10T10:05:11.314176",
    "MEAN_MOTION": 15.30241125,
    "ECCENTRICITY": 0.0001518,
    "INCLINATION": 53.1594,
    "RA_OF_ASC_NODE": 105.0731,
    "ARG_OF_PERICENTER": 96.9474,
    "MEAN_ANOMALY": 263.1699,
    "EPHEMERIS_TYPE": 0,
    "CLASSIFICATION_TYPE": "U",
    "NORAD_CAT_ID": 63050,
    "ELEMENT_SET_NO": 999,
    "REV_AT_EPOCH": 4064,
    "BSTAR": 0.0011739,
    "MEAN_MOTION_DOT": 0.00034616,
    "MEAN_MOTION_DDOT": 0.0,
    "TLE_LINE1": "1 63050U 25034X   25314.42026984  .00034616  00000+0  11739-2 0  9990",
    "TLE_LINE2": "2 63050  53.1594 105.0731 0001518  96.9474 263.1699 15.30241125 40648",
    "COMMENT": "Grouped by shell and plane from TLE"
  },
  {
    "OBJECT_NAME": "STARLINK-32835",
    "OBJECT_ID": "25034Y",
    "EPOCH": "2025-11-10T16:32:02.580864",
    "MEAN_MOTION": 15.30190823,
    "ECCENTRICITY": 9e-05,
    "INCLINATION": 53.1614,
    "RA_OF_ASC_NODE": 103.9117,
    "ARG_OF_PERICENTER": 72.8987,
    "MEAN_ANOMALY": 287.2112,
    "EPHEMERIS_TYPE": 0,
    "CLASSIFICATION_TYPE": "U",
    "NORAD_CAT_ID": 63051,
    "ELEMENT_SET_NO": 999,
    "REV_AT_EPOCH": 4068,
    "BSTAR": 0.00116,
    "MEAN_MOTION_DOT": 0.00034146,
    "MEAN_MOTION_DDOT": 0.0,
    "TLE_LINE1": "1 63051U 25034Y   25314.68891876  .00034146  00000+0  11600-2 0  9994",
    "TLE_LINE2": "2 63051  53.1614 103.9117 0000900  72.8987 287.2112 15.30190823 40682",
    "COMMENT": "Grouped by shell and plane from TLE"
  },
  {
    "OBJECT_NAME": "STARLINK-33623",
    "OBJECT_ID": "25035W",
    "EPOCH": "2025-11-10T09:48:14.221152",
    "MEAN_MOTION": 15.27605385,
    "ECCENTRICITY": 8.88e-05,
    "INCLINATION": 43.0006,
    "RA_OF_ASC_NODE": 101.0206,
    "ARG_OF_PERICENTER": 261.8743,
    "MEAN_ANOMALY": 98.2008,
    "EPHEMERIS_TYPE": 0,
    "CLASSIFICATION_TYPE": "U",
    "NORAD_CAT_ID": 63072,
    "ELEMENT_SET_NO": 999,
    "REV_AT_EPOCH": 4148,
    "BSTAR": 0.0018473,
    "MEAN_MOTION_DOT": 0.00050963,
    "MEAN_MOTION_DDOT": 0.0,
    "TLE_LINE1": "1 63072U 25035W   25314.40849793  .00050963  00000+0  18473-2 0  9999",
    "TLE_LINE2": "2 63072  43.0006 101.0206 0000888 261.8743  98.2008 15.27605385 41484",
    "COMMENT": "Grouped by shell and plane from TLE"
  },
  {
    "OBJECT_NAME": "STARLINK-35226",
    "OBJECT_ID": "25198A",
    "EPOCH": "2025-11-10T20:25:02.516448",
    "MEAN_MOTION": 15.39667697,
    "ECCENTRICITY": 7.65e-05,
    "INCLINATION": 53.1618,
    "RA_OF_ASC_NODE": 108.7924,
    "ARG_OF_PERICENTER": 74.3143,
    "MEAN_ANOMALY": 285.7946,
    "EPHEMERIS_TYPE": 0,
    "CLASSIFICATION_TYPE": "U",
    "NORAD_CAT_ID": 65492,
    "ELEMENT_SET_NO": 999,
    "REV_AT_EPOCH": 1034,
    "BSTAR": 0.0017607,
    "MEAN_MOTION_DOT": 0.00070793,
    "MEAN_MOTION_DDOT": 0.0,
    "TLE_LINE1": "1 65492U 25198A   25314.85072357  .00070793  00000+0  17607-2 0  9991",
    "TLE_LINE2": "2 65492  53.1618 108.7924 0000765  74.3143 285.7946 15.39667697 10341",
    "COMMENT": "Grouped by shell and plane from TLE"
  },
  {
    "OBJECT_NAME": "STARLINK-35242",
    "OBJECT_ID": "25198B",
    "EPOCH": "2025-11-11T03:25:45.994944",
    "MEAN_MOTION": 15.39638982,
    "ECCENTRICITY": 0.0002263,
    "INCLINATION": 53.1596,
    "RA_OF_ASC_NODE": 107.7779,
    "ARG_OF_PERICENTER": 72.0898,
    "MEAN_ANOMALY": 288.0353,
    "EPHEMERIS_TYPE": 0,
    "CLASSIFICATION_TYPE": "U",
    "NORAD_CAT_ID": 65493,
    "ELEMENT_SET_NO": 999,
    "REV_AT_EPOCH": 1038,
    "BSTAR": 0.0020930000000000002,
    "MEAN_MOTION_DOT": 0.00084304,
    "MEAN_MOTION_DDOT": 0.0,
    "TLE_LINE1": "1 65493U 25198B   25315.14289346  .00084304  00000+0  20930-2 0  9999",
    "TLE_LINE2": "2 65493  53.1596 107.7779 0002263  72.0898 288.0353 15.39638982 10388",
    "COMMENT": "Grouped by shell and plane from TLE"
  }
]